{"type": "FeatureCollection", "features": [ {"type": "Feature", "properties": {"norad_id": 39778, "name": "IRIDIUM 33 DEB", "group": "iridium-33-debris", "lat": 19.295379779886993, "lon": 39.43142255752036, "alt_km": 707.00798356415, "timestamp": "2025-12-24T09:46:31.389964+00:00", "meta": {"OBJECT_NAME": "IRIDIUM 33 DEB", "OBJECT_ID": "1997-051AAK", "EPOCH": "2025-12-21T20:35:18.523392", "MEAN_MOTION": 14.54320185, "ECCENTRICITY": 0.00069599, "INCLINATION": 86.3767, "RA_OF_ASC_NODE": 39.2671, "ARG_OF_PERICENTER": 13.6493, "MEAN_ANOMALY": 346.4901, "EPHEMERIS_TYPE": 0, "CLASSIFICATION_TYPE": "U", "NORAD_CAT_ID": 39778, "ELEMENT_SET_NO": 999, "REV_AT_EPOCH": 60825, "BSTAR": 0.00075764417, "MEAN_MOTION_DOT": 3.235e-05, "MEAN_MOTION_DDOT": 0}, "tle": {"line1": "1 39778U 97051AAK 25355.85785328  .00003235  00000+0  75764-3 0  9996", "line2": "2 39778  86.3767  39.2671 0006959  13.6493 346.4901 14.54320185608257"}}, "geometry": {"type": "Point", "coordinates": [39.43142255752036, 19.295379779886993]}}, {"type": "Feature", "properties": {"norad_id": 39781, "name": "IRIDIUM 33 DEB", "group": "iridium-33-debris", "lat": 12.634803924563549, "lon": 72.35576930962326, "alt_km": 776.2218690184618, "timestamp": "2025-12-24T09:46:31.389974+00:00", "meta": {"OBJECT_NAME": "IRIDIUM 33 DEB", "OBJECT_ID": "1997-051AAN", "EPOCH": "2025-12-20T00:15:44.286336", "MEAN_MOTION": 14.2080867, "ECCENTRICITY": 0.01741047, "INCLINATION": 86.3716, "RA_OF_ASC_NODE": 254.9822, "ARG_OF_PERICENTER": 249.9468, "MEAN_ANOMALY": 125.5554, "EPHEMERIS_TYPE": 0, "CLASSIFICATION_TYPE": "U", "NORAD_CAT_ID": 39781, "ELEMENT_SET_NO": 999, "REV_AT_EPOCH": 8210, "BSTAR": 0.0030068331, "MEAN_MOTION_DOT": 7.585e-05, "MEAN_MOTION_DDOT": 0}, "tle": {"line1": "1 39781U 97051AAN 25354.01092924  .00007585  00000+0  30068-2 0  9999", "line2": "2 39781  86.3716 254.9822 0174104 249.9468 125.5554 14.20808670 82106"}}, "geometry": {"type": "Point", "coordinates": [72.35576930962326, 12.634803924563549]}}, {"type": "Feature", "properties": {"norad_id": 40996, "name": "IRIDIUM 33 DEB", "group": "iridium-33-debris", "lat": -81.23679722144202, "lon": -28.50281074978755, "alt_km": 586.6003016587365, "timestamp": "2025-12-24T09:46:31.389985+00:00", "meta": {"OBJECT_NAME": "IRIDIUM 33 DEB", "OBJECT_ID": "1997-051ABJ", "EPOCH": "2025-12-21T06:48:04.268736", "MEAN_MOTION": 14.9672554, "ECCENTRICITY": 0.001126, "INCLINATION": 86.3507, "RA_OF_ASC_NODE": 357.4159, "ARG_OF_PERICENTER": 39.2145, "MEAN_ANOMALY": 336.8251, "EPHEMERIS_TYPE": 0, "CLASSIFICATION_TYPE": "U", "NORAD_CAT_ID": 40996, "ELEMENT_SET_NO": 999, "REV_AT_EPOCH": 62616, "BSTAR": 0.0023808, "MEAN_MOTION_DOT": 0.00027327, "MEAN_MOTION_DDOT": 0}, "tle": {"line1": "1 40996U 97051ABJ 25355.28338274  .00027327  00000+0  23808-2 0  9990", "line2": "2 40996  86.3507 357.4159 0011260  39.2145 336.8251 14.96725540626169"}}, "geometry": {"type": "Point", "coordinates": [-28.50281074978755, -81.23679722144202]}}, {"type": "Feature", "properties": {"norad_id": 40998, "name": "IRIDIUM 33 DEB", "group": "iridium-33-debris", "lat": 13.611726953930837, "lon": 49.54984341729581, "alt_km": 737.4990228019687, "timestamp": "2025-12-24T09:46:31.389995+00:00", "meta": {"OBJECT_NAME": "IRIDIUM 33 DEB", "OBJECT_ID": "1997-051ABL", "EPOCH": "2025-12-19T22:16:12.052992", "MEAN_MOTION": 14.4511921, "ECCENTRICITY": 0.000918, "INCLINATION": 86.3822, "RA_OF_ASC_NODE": 50.5853, "ARG_OF_PERICENTER": 65.4089, "MEAN_ANOMALY": 59.4922, "EPHEMERIS_TYPE": 0, "CLASSIFICATION_TYPE": "U", "NORAD_CAT_ID": 40998, "ELEMENT_SET_NO": 999, "REV_AT_EPOCH": 6785, "BSTAR": 0.00031233, "MEAN_MOTION_DOT": 1.112e-05, "MEAN_MOTION_DDOT": 0}, "tle": {"line1": "1 40998U 97051ABL 25353.92791728  .00001112  00000+0  31233-3 0  9994", "line2": "2 40998  86.3822  50.5853 0009180  65.4089  59.4922 14.45119210 67852"}}, "geometry": {"type": "Point", "coordinates": [49.54984341729581, 13.611726953930837]}}, {"type": "Feature", "properties": {"norad_id": 46435, "name": "IRIDIUM 33 DEB", "group": "iridium-33-debris", "lat": 76.06259409470636, "lon": -155.8793613088988, "alt_km": 914.632515472832, "timestamp": "2025-12-24T09:46:31.390005+00:00", "meta": {"OBJECT_NAME": "IRIDIUM 33 DEB", "OBJECT_ID": "1997-051ABN", "EPOCH": "2025-12-23T07:26:56.673024", "MEAN_MOTION": 14.32901113, "ECCENTRICITY": 0.02063954, "INCLINATION": 86.2811, "RA_OF_ASC_NODE": 189.3996, "ARG_OF_PERICENTER": 241.8575, "MEAN_ANOMALY": 300.4526, "EPHEMERIS_TYPE": 0, "CLASSIFICATION_TYPE": "U", "NORAD_CAT_ID": 46435, "ELEMENT_SET_NO": 999, "REV_AT_EPOCH": 8067, "BSTAR": 0.0098042113, "MEAN_MOTION_DOT": 0.00034078, "MEAN_MOTION_DDOT": 0}, "tle": {"line1": "1 46435U 97051ABN 25357.31037816  .00034078  00000+0  98042-2 0  9991", "line2": "2 46435  86.2811 189.3996 0206395 241.8575 300.4526 14.32901113 80678"}}, "geometry": {"type": "Point", "coordinates": [-155.8793613088988, 76.06259409470636]}}, {"type": "Feature", "properties": {"norad_id": 46734, "name": "IRIDIUM 33 DEB", "group": "iridium-33-debris", "lat": -60.933695835778344, "lon": -9.009810203229932, "alt_km": 732.5228326157112, "timestamp": "2025-12-24T09:46:31.390015+00:00", "meta": {"OBJECT_NAME": "IRIDIUM 33 DEB", "OBJECT_ID": "1997-051ABR", "EPOCH": "2025-12-23T07:42:11.180736", "MEAN_MOTION": 14.41950916, "ECCENTRICITY": 0.00375691, "INCLINATION": 86.2641, "RA_OF_ASC_NODE": 358.2178, "ARG_OF_PERICENTER": 299.6503, "MEAN_ANOMALY": 123.5651, "EPHEMERIS_TYPE": 0, "CLASSIFICATION_TYPE": "U", "NORAD_CAT_ID": 46734, "ELEMENT_SET_NO": 999, "REV_AT_EPOCH": 63163, "BSTAR": 0.0010295637, "MEAN_MOTION_DOT": 3.42e-05, "MEAN_MOTION_DDOT": 0}, "tle": {"line1": "1 46734U 97051ABR 25357.32096274  .00003420  00000+0  10296-2 0  9999", "line2": "2 46734  86.2641 358.2178 0037569 299.6503 123.5651 14.41950916631633"}}, "geometry": {"type": "Point", "coordinates": [-9.009810203229932, -60.933695835778344]}}, {"type": "Feature", "properties": {"norad_id": 46965, "name": "IRIDIUM 33 DEB", "group": "iridium-33-debris", "lat": 51.216301816525565, "lon": 150.94802747336976, "alt_km": 698.785419028789, "timestamp": "2025-12-24T09:46:31.390026+00:00", "meta": {"OBJECT_NAME": "IRIDIUM 33 DEB", "OBJECT_ID": "1997-051ABX", "EPOCH": "2025-12-23T05:18:49.392864", "MEAN_MOTION": 14.60370511, "ECCENTRICITY": 0.00170224, "INCLINATION": 86.3362, "RA_OF_ASC_NODE": 336.0473, "ARG_OF_PERICENTER": 295.0187, "MEAN_ANOMALY": 82.9345, "EPHEMERIS_TYPE": 0, "CLASSIFICATION_TYPE": "U", "NORAD_CAT_ID": 46965, "ELEMENT_SET_NO": 999, "REV_AT_EPOCH": 62421, "BSTAR": 0.00084803208, "MEAN_MOTION_DOT": 4.13e-05, "MEAN_MOTION_DDOT": 0}, "tle": {"line1": "1 46965U 97051ABX 25357.22140501  .00004130  00000+0  84803-3 0  9992", "line2": "2 46965  86.3362 336.0473 0017022 295.0187  82.9345 14.60370511624214"}}, "geometry": {"type": "Point", "coordinates": [150.94802747336976, 51.216301816525565]}}, {"type": "Feature", "properties": {"norad_id": 46971, "name": "IRIDIUM 33 DEB", "group": "iridium-33-debris", "lat": 3.309726498181425, "lon": -32.160227891831816, "alt_km": 574.1190777789798, "timestamp": "2025-12-24T09:46:31.390036+00:00", "meta": {"OBJECT_NAME": "IRIDIUM 33 DEB", "OBJECT_ID": "1997-051ACD", "EPOCH": "2025-12-18T04:46:20.926848", "MEAN_MOTION": 14.98336604, "ECCENTRICITY": 0.00026432, "INCLINATION": 86.3383, "RA_OF_ASC_NODE": 330.5483, "ARG_OF_PERICENTER": 282.6501, "MEAN_ANOMALY": 90.914, "EPHEMERIS_TYPE": 0, "CLASSIFICATION_TYPE": "U", "NORAD_CAT_ID": 46971, "ELEMENT_SET_NO": 999, "REV_AT_EPOCH": 64312, "BSTAR": 0.0022892837, "MEAN_MOTION_DOT": 0.00027356, "MEAN_MOTION_DDOT": 0}, "tle": {"line1": "1 46971U 97051ACD 25352.19885332  .00027356  00000+0  22893-2 0  9993", "line2": "2 46971  86.3383 330.5483 0002643 282.6501  90.9140 14.98336604643128"}}, "geometry": {"type": "Point", "coordinates": [-32.160227891831816, 3.309726498181425]}}, {"type": "Feature", "properties": {"norad_id": 46972, "name": "IRIDIUM 33 DEB", "group": "iridium-33-debris", "lat": -37.739581147914215, "lon": 31.57638518708267, "alt_km": 732.6751177570368, "timestamp": "2025-12-24T09:46:31.390046+00:00", "meta": {"OBJECT_NAME": "IRIDIUM 33 DEB", "OBJECT_ID": "1997-051ACE", "EPOCH": "2025-12-21T09:11:05.305920", "MEAN_MOTION": 14.50711481, "ECCENTRICITY": 0.00115864, "INCLINATION": 86.3857, "RA_OF_ASC_NODE": 35.6828, "ARG_OF_PERICENTER": 82.9769, "MEAN_ANOMALY": 293.3093, "EPHEMERIS_TYPE": 0, "CLASSIFICATION_TYPE": "U", "NORAD_CAT_ID": 46972, "ELEMENT_SET_NO": 999, "REV_AT_EPOCH": 61698, "BSTAR": 0.00037661029, "MEAN_MOTION_DOT": 1.501e-05, "MEAN_MOTION_DDOT": 0}, "tle": {"line1": "1 46972U 97051ACE 25355.38270030  .00001501  00000+0  37661-3 0  9995", "line2": "2 46972  86.3857  35.6828 0011586  82.9769 293.3093 14.50711481616982"}}, "geometry": {"type": "Point", "coordinates": [31.57638518708267, -37.739581147914215]}}, {"type": "Feature", "properties": {"norad_id": 46974, "name": "IRIDIUM 33 DEB", "group": "iridium-33-debris", "lat": -81.62787268390174, "lon": -53.72264071484677, "alt_km": 777.5566998255035, "timestamp": "2025-12-24T09:46:31.390057+00:00", "meta": {"OBJECT_NAME": "IRIDIUM 33 DEB", "OBJECT_ID": "1997-051ACG", "EPOCH": "2025-12-14T14:09:41.074272", "MEAN_MOTION": 14.44439168, "ECCENTRICITY": 0.00956816, "INCLINATION": 86.2983, "RA_OF_ASC_NODE": 104.4675, "ARG_OF_PERICENTER": 181.0289, "MEAN_ANOMALY": 179.0732, "EPHEMERIS_TYPE": 0, "CLASSIFICATION_TYPE": "U", "NORAD_CAT_ID": 46974, "ELEMENT_SET_NO": 999, "REV_AT_EPOCH": 57535, "BSTAR": 0.0034715296, "MEAN_MOTION_DOT": 0.00012692, "MEAN_MOTION_DDOT": 0}, "tle": {"line1": "1 46974U 97051ACG 25348.59005873  .00012692  00000+0  34715-2 0  9992", "line2": "2 46974  86.2983 104.4675 0095681 181.0289 179.0732 14.44439168575351"}}, "geometry": {"type": "Point", "coordinates": [-53.72264071484677, -81.62787268390174]}}]}